STARLINK-1695_new
1 16329C 20062E   21326.15138299  .00004349  00000-0  29132-3 0  3260
2 16329  53.0519 198.0574 0001981  68.5632 145.1458 15.06403012    13
STARLINK-1695_old
1 26329C 20062E   21325.15627837  .00008882  00000-0  59506-3 0  3253
2 26329  53.0520 202.5248 0001925  68.0845 146.1468 15.06390978    11
